STARLINK-35293          
1 66012U 25232H   25300.83334491 -.01575953  00000+0 -94684-2 0  9993
2 66012  53.1549   5.5965 0000905  67.4268 180.7780 15.80052063  2183
STARLINK-35307          
1 66013U 25232J   25300.83334491 -.01581486  00000+0 -95188-2 0  9992
2 66013  53.1552   5.5920 0001117  70.5375 179.8922 15.80021684  2114
STARLINK-35395          
1 66014U 25232K   25300.83334491 -.01583911  00000+0 -95382-2 0  9994
2 66014  53.1550   5.5874 0000809  61.4534 190.9918 15.80019332  2176
STARLINK-34622          
1 66015U 25232L   25300.83334491 -.01618824  00000+0 -98457-2 0  9993
2 66015  53.1550   5.5687 0000905  68.8869 192.6854 15.79874032  2079
STARLINK-35243          
1 66016U 25232M   25300.83334491 -.01613012  00000+0 -97835-2 0  9997
2 66016  53.1549   5.5733 0001038  61.1203 198.1177 15.79919960  2187
STARLINK-35398          
1 66017U 25232N   25300.83334491 -.01645565  00000+0 -10066-1 0  9996
2 66017  53.1550   5.5590 0000730  68.2576 197.8746 15.79807193  2104
STARLINK-35376          
1 66018U 25232P   25300.83334491 -.01633303  00000+0 -99731-2 0  9991
2 66018  53.1550   5.5634 0001118  67.5718 196.4587 15.79815400  2181
STARLINK-35382          
1 66019U 25232Q   25300.83334491 -.01600297  00000+0 -96773-2 0  9991
2 66019  53.1553   5.5779 0001092  68.7100 188.2079 15.79958524  2184
STARLINK-35430          
1 66020U 25232R   25300.83334491 -.01654524  00000+0 -10142-1 0  9990
2 66020  53.1546   5.5498 0000675  68.5343 201.8076 15.79779659  2177
STARLINK-35432          
1 66021U 25232S   25300.83334491 -.01646527  00000+0 -10065-1 0  9999
2 66021  53.1544   5.5542 0000752  64.1408 203.8715 15.79823203  2106
STARLINK-35340          
1 66022U 25232T   25300.83334491 -.01696886  00000+0 -10199-1 0  9991
2 66022  53.1550   5.5457 0000958  61.2128 211.1390 15.79780549  2177
STARLINK-35394          
1 66023U 25232U   25300.83334491 -.01719528  00000+0 -10357-1 0  9997
2 66023  53.1547   5.5411 0001027  67.7983 206.6923 15.79770923  2178
